NORAD_CAT_ID,OBJECT_NAME,OBJECT_TYPE,EPOCH,MEAN_MOTION,ECCENTRICITY,INCLINATION,RA_OF_ASC_NODE,ARG_OF_PERICENTER,MEAN_ANOMALY,BSTAR,MEAN_MOTION_DOT,MEAN_MOTION_DDOT,TLE_LINE0,TLE_LINE1,TLE_LINE2,SEMIMAJOR_AXIS,PERIOD,APOGEE,PERIGEE,DECAYED
51816.0,STARLINK-3603,PAYLOAD,2022-09-05 14:00:01,15.08842925,0.0001523,53.2193,320.2290000000001,78.7139,143.7569,-0.00046182,-7.631e-05,0.0,0 STARLINK-3603,1 51816U 22017BA  22248.58334491 -.00007631  00000-0 -46182-3 0  9991,2 51816  53.2193 320.2290 0001523  78.7139 143.7569 15.08842925  1303,6917.871,95.437,540.79,538.683,0.0
51816.0,STARLINK-3603,PAYLOAD,2022-09-05 22:00:00,15.0884035,0.0001450999999999,53.2194,318.7313,82.801,151.2675,-0.0040766,-0.00064586,0.0,0 STARLINK-3603,1 51816U 22017BA  22248.91667824 -.00064586  00000-0 -40766-2 0  9990,2 51816  53.2194 318.7313 0001451  82.8010 151.2675 15.08840350  1308,6917.879,95.438,540.748,538.741,0.0
51816.0,STARLINK-3603,PAYLOAD,2022-09-06 14:00:01,15.08793699,0.0001583,53.2196,315.7403,77.3817,179.81400000000005,0.0028378,0.00045107,0.0,0 STARLINK-3603,1 51816U 22017BA  22249.58334491  .00045107  00000-0  28378-2 0  9996,2 51816  53.2196 315.7403 0001583  77.3817 179.8140 15.08793699  1303,6918.022,95.44,540.982,538.7919999999998,0.0
51816.0,STARLINK-3603,PAYLOAD,2022-09-06 20:00:01,15.08834896,0.0001501999999999,53.2194,314.6172,80.8045,95.0517,-0.0015375999999999,-0.00024672,0.0,0 STARLINK-3603,1 51816U 22017BA  22249.83334491 -.00024672  00000-0 -15376-2 0  9994,2 51816  53.2194 314.6172 0001502  80.8045  95.0517 15.08834896 31041,6917.896,95.438,540.8,538.722,0.0
51816.0,STARLINK-3603,PAYLOAD,2022-09-06 22:00:00,15.08825927,0.0001476,53.2197,314.2427,83.3205,185.4329,-0.00041945,-6.955e-05,0.0,0 STARLINK-3603,1 51816U 22017BA  22249.91667824 -.00006955  00000-0 -41945-3 0  9998,2 51816  53.2197 314.2427 0001476  83.3205 185.4329 15.08825927  1305,6917.9230000000025,95.438,540.809,538.7669999999998,0.0
51816.0,STARLINK-3603,PAYLOAD,2022-09-07 12:00:00,15.08829741,0.0001533,53.2195,311.6257,78.756,120.2645,0.00073583,0.00011439,0.0,0 STARLINK-3603,1 51816U 22017BA  22250.50001157  .00011439  00000-0  73583-3 0  9990,2 51816  53.2195 311.6257 0001533  78.7560 120.2645 15.08829741 31142,6917.9119999999975,95.438,540.837,538.716,0.0
51816.0,STARLINK-3603,PAYLOAD,2022-09-07 14:00:01,15.08816992,0.0001531999999999,53.2195,311.2518,77.2305,214.6905,0.0028653,0.0004557999999999,0.0,0 STARLINK-3603,1 51816U 22017BA  22250.58334491  .00045580  00000-0  28653-2 0  9999,2 51816  53.2195 311.2518 0001532  77.2305 214.6905 15.08816992  1304,6917.951,95.439,540.876,538.756,0.0
51816.0,STARLINK-3603,PAYLOAD,2022-09-07 22:00:00,15.0884805,0.00014,53.2194,309.7541,84.4018,219.1063,-0.00061233,-0.00010022,0.0,0 STARLINK-3603,1 51816U 22017BA  22250.91667824 -.00010022  00000-0 -61233-3 0  9992,2 51816  53.2194 309.7541 0001400  84.4018 219.1063 15.08848050  1301,6917.856,95.437,540.689,538.752,0.0
51816.0,STARLINK-3603,PAYLOAD,2022-09-08 14:00:01,15.08809145,0.0001599,53.219,306.7632,78.7027,248.0164,0.0028721,0.00045679,0.0,0 STARLINK-3603,1 51816U 22017BA  22251.58334491  .00045679  00000-0  28721-2 0  9995,2 51816  53.2190 306.7632 0001599  78.7027 248.0164 15.08809145  1305,6917.975,95.44,540.946,538.734,0.0
51816.0,STARLINK-3603,PAYLOAD,2022-09-08 20:00:01,15.08851878,0.0001527,53.2187,305.6398,83.4299,161.9694,-0.0016522,-0.00026495,0.0,0 STARLINK-3603,1 51816U 22017BA  22251.83334491 -.00026495  00000-0 -16522-2 0  9996,2 51816  53.2187 305.6398 0001527  83.4299 161.9694 15.08851878 31341,6917.844,95.437,540.765,538.653,0.0
51816.0,STARLINK-3603,PAYLOAD,2022-09-08 22:00:00,15.08833388,0.0001514,53.2187,305.2654,86.2582,252.0463,0.00072482,0.00011264,0.0,0 STARLINK-3603,1 51816U 22017BA  22251.91667824  .00011264  00000-0  72482-3 0  9998,2 51816  53.2187 305.2654 0001514  86.2582 252.0463 15.08833388  1309,6917.901,95.438,540.813,538.7180000000002,0.0
51816.0,STARLINK-3603,PAYLOAD,2022-09-09 14:00:01,15.08803702,0.0001441999999999,53.2181,302.2745,78.2596,283.2473,0.0030519,0.00048569,0.0,0 STARLINK-3603,1 51816U 22017BA  22252.58334491  .00048569  00000-0  30519-2 0  9995,2 51816  53.2181 302.2745 0001442  78.2596 283.2473 15.08803702 31450,6917.991,95.44,540.854,538.859,0.0
51816.0,STARLINK-3603,PAYLOAD,2022-09-09 22:00:00,15.08821672,0.0001385,53.2178,300.7765,86.6501,286.4347,0.0012929,0.00020338,0.0,0 STARLINK-3603,1 51816U 22017BA  22252.91667824  .00020338  00000-0  12929-2 0  9990,2 51816  53.2178 300.7765 0001385  86.6501 286.4347 15.08821672  1308,6917.936,95.439,540.76,538.8430000000002,0.0
51816.0,STARLINK-3603,PAYLOAD,2022-09-10 04:00:00,15.08841376,0.0001441999999999,53.2178,299.6542,89.6822,202.0807,0.00062349,9.649e-05,0.0,0 STARLINK-3603,1 51816U 22017BA  22253.16667824  .00009649  00000-0  62349-3 0  9992,2 51816  53.2178 299.6542 0001442  89.6822 202.0807 15.08841376 31547,6917.876,95.437,540.739,538.744,0.0
51816.0,STARLINK-3603,PAYLOAD,2022-09-10 14:00:01,15.08831777,0.0001456,53.2173,297.785,76.8599,319.408,0.0019076,0.00030195,0.0,0 STARLINK-3603,1 51816U 22017BA  22253.58334491  .00030195  00000-0  19076-2 0  9997,2 51816  53.2173 297.7850 0001456  76.8599 319.4080 15.08831777  1308,6917.906,95.438,540.778,538.763,0.0
51816.0,STARLINK-3603,PAYLOAD,2022-09-10 22:00:00,15.08817568,0.0001463,53.2172,296.2873,86.2448,321.6214,0.00067015,0.00010387,0.0,0 STARLINK-3603,1 51816U 22017BA  22253.91667824  .00010387  00000-0  67015-3 0  9991,2 51816  53.2172 296.2873 0001463  86.2448 321.6214 15.08817568 31659,6917.949000000001,95.439,540.826,538.802,0.0
51816.0,STARLINK-3603,PAYLOAD,2022-09-11 14:00:01,15.08818804,0.0001551,53.2169,293.2962,76.3958,354.6445,0.0030347,0.00048312,0.0,0 STARLINK-3603,1 51816U 22017BA  22254.58334491  .00048312  00000-0  30347-2 0  9992,2 51816  53.2169 293.2962 0001551  76.3958 354.6445 15.08818804  1300,6917.945,95.439,540.883,538.737,0.0
51816.0,STARLINK-3603,PAYLOAD,2022-09-11 22:00:00,15.08840608,0.0001453,53.217,291.7979,84.1703,358.4661,-0.00052358,-8.611e-05,0.0,0 STARLINK-3603,1 51816U 22017BA  22254.91667824 -.00008611  00000-0 -52358-3 0  9995,2 51816  53.2170 291.7979 0001453  84.1703 358.4661 15.08840608  1308,6917.879,95.438,540.749,538.738,0.0
51816.0,STARLINK-3603,PAYLOAD,2022-09-12 06:00:00,15.08843697,0.0001483,53.217,290.3021,81.8759,12.3521,-0.0014720999999999,-0.00023642,0.0,0 STARLINK-3603,1 51816U 22017BA  22255.25001157 -.00023642  00000-0 -14721-2 0  9996,2 51816  53.2170 290.3021 0001483  81.8759  12.3521 15.08843697 31854,6917.869000000002,95.437,540.76,538.7080000000002,0.0
51816.0,STARLINK-3603,PAYLOAD,2022-09-12 14:00:01,15.08816438,0.0001479,53.217,288.8066,73.0219,32.7968,0.002787,0.00044318,0.0,0 STARLINK-3603,1 51816U 22017BA  22255.58334491  .00044318  00000-0  27870-2 0  9992,2 51816  53.2170 288.8066 0001479  73.0219  32.7968 15.08816438  1305,6917.9519999999975,95.439,540.841,538.794,0.0
51816.0,STARLINK-3603,PAYLOAD,2022-09-12 22:00:00,15.08828865,0.0001440999999999,53.2173,287.3084,81.8673,35.5477,0.0020526,0.0003252,0.0,0 STARLINK-3603,1 51816U 22017BA  22255.91667824  .00032520  00000-0  20526-2 0  9991,2 51816  53.2173 287.3084 0001441  81.8673  35.5477 15.08828865 31959,6917.9140000000025,95.438,540.776,538.783,0.0
51816.0,STARLINK-3603,PAYLOAD,2022-09-13 14:00:01,15.08822577,0.0001635,53.2173,284.3166,72.9387,67.6711,0.0023375999999999,0.00037093,0.0,0 STARLINK-3603,1 51816U 22017BA  22256.58334491  .00037093  00000-0  23376-2 0  9992,2 51816  53.2173 284.3166 0001635  72.9387  67.6711 15.08822577  1302,6917.934,95.439,540.93,538.668,0.0
51816.0,STARLINK-3603,PAYLOAD,2022-09-13 16:00:00,15.0885587,0.00016,53.2173,283.9416,75.171,158.3272,-0.0019584,-0.00031334,0.0,0 STARLINK-3603,1 51816U 22017BA  22256.66667824 -.00031334  00000-0 -19584-2 0  9990,2 51816  53.2173 283.9416 0001600  75.1710 158.3272 15.08855870 32072,6917.831999999999,95.437,540.804,538.59,0.0
51816.0,STARLINK-3603,PAYLOAD,2022-09-13 22:00:00,15.0881467,0.0001481,53.2176,282.8183,81.9781,70.2197,0.00033069,4.975e-05,0.0,0 STARLINK-3603,1 51816U 22017BA  22256.91667824  .00004975  00000-0  33069-3 0  9992,2 51816  53.2176 282.8183 0001481  81.9781  70.2197 15.08814670  1307,6917.958000000001,95.439,540.847,538.798,0.0
51816.0,STARLINK-3603,PAYLOAD,2022-09-14 14:00:01,15.0881154,0.0001633,53.2174,279.8259,70.7456,104.601,0.0030472,0.00048504,0.0,0 STARLINK-3603,1 51816U 22017BA  22257.58334491  .00048504  00000-0  30472-2 0  9997,2 51816  53.2174 279.8259 0001633  70.7456 104.6010 15.08811540 32212,6917.967,95.439,540.962,538.703,0.0
51816.0,STARLINK-3603,PAYLOAD,2022-09-14 22:00:00,15.08810114,0.0001443999999999,53.218,278.3296,81.9206,105.0045,0.0028028,0.00044564,0.0,0 STARLINK-3603,1 51816U 22017BA  22257.91667824  .00044564  00000-0  28028-2 0  9999,2 51816  53.2180 278.3296 0001444  81.9206 105.0045 15.08810114 32265,6917.972,95.439,540.836,538.8380000000002,0.0
51816.0,STARLINK-3603,PAYLOAD,2022-09-15 14:00:01,15.08844038,0.000152,53.2179,275.3386,73.3574,136.7442,0.00093736,0.00014663,0.0,0 STARLINK-3603,1 51816U 22017BA  22258.58334491  .00014663  00000-0  93736-3 0  9990,2 51816  53.2179 275.3386 0001520  73.3574 136.7442 15.08844038  1303,6917.868,95.437,540.785,538.682,0.0
51816.0,STARLINK-3603,PAYLOAD,2022-09-15 16:00:00,15.08864438,0.0001486999999999,53.2179,274.964,75.6292,227.3681,-0.0016965,-0.00027204,0.0,0 STARLINK-3603,1 51816U 22017BA  22258.66667824 -.00027204  00000-0 -16965-2 0  9993,2 51816  53.2179 274.9640 0001487  75.6292 227.3681 15.08864438 32374,6917.806,95.436,540.6990000000002,538.6419999999998,0.0
51816.0,STARLINK-3603,PAYLOAD,2022-09-16 11:19:46,15.08837968,0.0001472,53.2186,271.3487,80.109,280.0068,0.00021635,3.157e-05,0.0,0 STARLINK-3603,1 51816U 22017BA  22259.47206378  .00003157  00000-0  21635-3 0  9996,2 51816  53.2186 271.3487 0001472  80.1090 280.0068 15.08837968 32499,6917.887,95.438,540.77,538.7330000000002,0.0
